H1 CPF 01  gfz 2021 06 21 12  6721 terrasarx 
H2 0702601  6201 31698    2021 06 21 12 59 42 2021 06 26 00 00 42   120 1 1  0 0 0
H9
10 0 59390  48942.000000  0    2303076.930   3490850.585   5463993.787
10 0 59390  49062.000000  0    2079581.921   2744949.109   5955868.651
10 0 59390  49182.000000  0    1806347.285   1955471.356   6343024.959
10 0 59390  49302.000000  0    1487519.441   1137046.140   6618693.814
10 0 59390  49422.000000  0    1128294.403    304713.969   6778060.567
10 0 59390  49542.000000  0     734832.362   -526348.634   6818342.952
10 0 59390  49662.000000  0     314151.855  -1341105.247   6738838.393
10 0 59390  49782.000000  0    -125995.688  -2124931.835   6540935.517
10 0 59390  49902.000000  0    -577268.822  -2863879.399   6228091.067
10 0 59390  50022.000000  0   -1030892.856  -3544923.148   5805771.384
10 0 59390  50142.000000  0   -1477827.379  -4156192.742   5281361.713
10 0 59390  50262.000000  0   -1908945.058  -4687183.371   4664045.670
10 0 59390  50382.000000  0   -2315218.613  -5128944.397   3964651.625
10 0 59390  50502.000000  0   -2687910.797  -5474239.751   3195465.908
10 0 59390  50622.000000  0   -3018761.815  -5717673.761   2370016.436
10 0 59390  50742.000000  0   -3300170.472  -5855781.168   1502832.947
10 0 59390  50862.000000  0   -3525365.228  -5887079.782    609186.728
10 0 59390  50982.000000  0   -3688560.601  -5812083.349   -295185.187
10 0 59390  51102.000000  0   -3785094.911  -5633274.420  -1194365.660
10 0 59390  51222.000000  0   -3811545.486  -5355036.790  -2072546.991
10 0 59390  51342.000000  0   -3765818.391  -4983549.317  -2914316.902
10 0 59390  51462.000000  0   -3647210.272  -4526644.484  -3704934.527
10 0 59390  51582.000000  0   -3456441.030  -3993636.486  -4430589.920
10 0 59390  51702.000000  0   -3195657.891  -3395124.368  -5078642.701
10 0 59390  51822.000000  0   -2868411.235  -2742774.583  -5637836.343
10 0 59390  51942.000000  0   -2479603.433  -2049088.626  -6098484.598
10 0 59390  52062.000000  0   -2035411.811  -1327161.001  -6452629.254
10 0 59390  52182.000000  0   -1543186.893   -590431.502  -6694166.256
10 0 59390  52302.000000  0   -1011329.683    147562.391  -6818939.006
10 0 59390  52422.000000  0    -449150.263    873428.410  -6824801.446
10 0 59390  52542.000000  0     133292.020   1574156.282  -6711651.067
10 0 59390  52662.000000  0     725362.885   2237344.449  -6481430.945
10 0 59390  52782.000000  0    1316043.032   2851415.680  -6138102.180
10 0 59390  52902.000000  0    1894129.150   3405817.412  -5687582.513
10 0 59390  53022.000000  0    2448442.584   3891203.337  -5137653.912
10 0 59390  53142.000000  0    2968043.305   4299593.816  -4497839.782
10 0 59390  53262.000000  0    3442445.519   4624513.551  -3779251.233
10 0 59390  53382.000000  0    3861830.706   4861102.010  -2994403.284
10 0 59390  53502.000000  0    4217254.172   5006193.630  -2157002.680
10 0 59390  53622.000000  0    4500837.991   5058364.832  -1281710.848
10 0 59390  53742.000000  0    4705947.629   5017948.473   -383886.313
10 0 59390  53862.000000  0    4827346.276   4887011.286    520690.514
10 0 59390  53982.000000  0    4861320.848   4669295.975   1416101.352
10 0 59390  54102.000000  0    4805779.613   4370131.375   2286577.336
10 0 59390  54222.000000  0    4660318.448   3996309.879   3116786.483
10 0 59390  54342.000000  0    4426250.389   3555934.730   3892112.355
10 0 59390  54462.000000  0    4106599.654   3058242.640   4598916.304
10 0 59390  54582.000000  0    3706062.928   2513407.375   5224779.382
10 0 59390  54702.000000  0    3230934.947   1932327.291   5758721.414
10 0 59390  54822.000000  0    2689002.982   1326403.876   6191388.777
10 0 59390  54942.000000  0    2089414.392    707314.838   6515212.335
10 0 59390  55062.000000  0    1442518.415     86788.427   6724532.745
10 0 59390  55182.000000  0     759685.196   -523617.320   6815695.097
10 0 59390  55302.000000  0      53104.475  -1112730.200   6787109.479
10 0 59390  55422.000000  0    -664432.346  -1669967.998   6639276.230
10 0 59390  55542.000000  0   -1379763.505  -2185528.580   6374776.809
10 0 59390  55662.000000  0   -2079596.488  -2650561.920   5998230.053
10 0 59390  55782.000000  0   -2750753.020  -3057322.682   5516218.201
10 0 59390  55902.000000  0   -3380419.845  -3399303.281   4937180.134
10 0 59390  56022.000000  0   -3956398.471  -3671341.695   4271268.110
10 0 59390  56142.000000  0   -4467345.657  -3869702.050   3530173.165
10 0 59390  56262.000000  0   -4903001.599  -3992127.178   2726922.524
10 0 59390  56382.000000  0   -5254401.925  -4037862.375   1875651.244
10 0 59390  56502.000000  0   -5514067.424  -4007648.456    991349.421
10 0 59390  56622.000000  0   -5676165.616  -3903683.178     89591.907
10 0 59390  56742.000000  0   -5736640.758  -3729552.910   -813744.033
10 0 59390  56862.000000  0   -5693308.512  -3490135.926  -1702768.004
10 0 59390  56982.000000  0   -5545911.074  -3191478.594  -2561865.466
10 0 59390  57102.000000  0   -5296133.106  -2840649.612  -3375977.666
10 0 59390  57222.000000  0   -4947579.209  -2445576.235  -4130868.495
10 0 59390  57342.000000  0   -4505714.132  -2014866.588  -4813372.603
10 0 59390  57462.000000  0   -3977767.388  -1557623.123  -5411620.921
10 0 59390  57582.000000  0   -3372605.206  -1083250.818  -5915239.688
10 0 59390  57702.000000  0   -2700573.558   -601264.881  -6315519.843
10 0 59390  57822.000000  0   -1973316.012   -121102.345  -6605556.241
10 0 59390  57942.000000  0   -1203569.231    348058.749  -6780354.976
10 0 59390  58062.000000  0    -404942.143    797469.519  -6836909.193
10 0 59390  58182.000000  0     408319.477   1218969.276  -6774244.983
10 0 59390  58302.000000  0    1221579.772   1605128.978  -6593437.115
10 0 59390  58422.000000  0    2020070.863   1949379.951  -6297594.677
10 0 59390  58542.000000  0    2789155.912   2246124.679  -5891813.111
10 0 59390  58662.000000  0    3514593.989   2490827.681  -5383094.574
10 0 59390  58782.000000  0    4182801.651   2680085.511  -4780238.495
10 0 59390  58902.000000  0    4781110.331   2811675.508  -4093701.328
10 0 59390  59022.000000  0    5298012.217   2884580.860  -3335424.429
10 0 59390  59142.000000  0    5723388.394   2898991.604  -2518634.166
10 0 59390  59262.000000  0    6048717.351   2856282.101  -1657616.320
10 0 59390  59382.000000  0    6267254.980   2758962.644   -767465.480
10 0 59390  59502.000000  0    6374182.230   2610607.605    136182.619
10 0 59390  59622.000000  0    6366715.278   2415760.106   1037433.022
10 0 59390  59742.000000  0    6244175.182   2179816.717   1920417.649
10 0 59390  59862.000000  0    6008017.479   1908896.195   2769583.803
10 0 59390  59982.000000  0    5661816.767   1609692.516   3569977.102
10 0 59390  60102.000000  0    5211208.509   1289318.168   4307511.847
10 0 59390  60222.000000  0    4663788.723    955140.967   4969222.044
10 0 59390  60342.000000  0    4028977.917    614619.673   5543489.518
10 0 59390  60462.000000  0    3317849.114    275140.419   6020246.855
10 0 59390  60582.000000  0    2542925.070    -56140.199   6391147.920
10 0 59390  60702.000000  0    1717952.664   -372442.347   6649707.366
10 0 59390  60822.000000  0     857655.662   -667499.310   6791409.347
10 0 59390  60942.000000  0     -22531.074   -935680.393   6813781.793
10 0 59390  61062.000000  0    -906738.763  -1172097.378   6716435.713
10 0 59390  61182.000000  0   -1778949.907  -1372693.738   6501070.676
10 0 59390  61302.000000  0   -2623286.655  -1534313.899   6171445.923
10 0 59390  61422.000000  0   -3424298.293  -1654752.121   5733320.444
10 0 59390  61542.000000  0   -4167247.698  -1732782.053   5194360.251
10 0 59390  61662.000000  0   -4838388.080  -1768165.609   4564009.631
10 0 59390  61782.000000  0   -5425224.636  -1761639.733   3853329.907
10 0 59390  61902.000000  0   -5916754.734  -1714881.086   3074807.799
10 0 59390  62022.000000  0   -6303682.638  -1630450.242   2242137.972
10 0 59390  62142.000000  0   -6578606.101  -1511717.189   1369981.187
10 0 59390  62262.000000  0   -6736166.338  -1362768.308    473699.376
10 0 59390  62382.000000  0   -6773156.613  -1188297.064   -430922.762
10 0 59390  62502.000000  0   -6688587.840   -993481.689  -1327964.930
10 0 59390  62622.000000  0   -6483708.922   -783853.107  -2201660.157
10 0 59390  62742.000000  0   -6161982.650   -565157.082  -3036678.445
10 0 59390  62862.000000  0   -5729018.071   -343214.120  -3818401.223
10 0 59390  62982.000000  0   -5192460.013   -123778.771  -4533178.897
10 0 59390  63102.000000  0   -4561840.887     87596.528  -5168566.143
10 0 59390  63222.000000  0   -3848399.436    285689.754  -5713532.627
10 0 59390  63342.000000  0   -3064869.434    465726.860  -6158644.926
10 0 59390  63462.000000  0   -2225245.725    623486.655  -6496217.218
10 0 59390  63582.000000  0   -1344532.496    755390.945  -6720432.832
10 0 59390  63702.000000  0    -438476.048    858579.191  -6827434.148
10 0 59390  63822.000000  0     476711.219    930966.288  -6815380.189
10 0 59390  63942.000000  0    1384632.449    971282.098  -6684476.228
10 0 59390  64062.000000  0    2268994.350    979093.374  -6436972.661
10 0 59390  64182.000000  0    3113894.019    954807.410  -6077130.251
10 0 59390  64302.000000  0    3904100.896    899657.074  -5611153.408
10 0 59390  64422.000000  0    4625329.302    815667.019  -5047093.792
10 0 59390  64542.000000  0    5264499.746    705602.281  -4394723.134
10 0 59390  64662.000000  0    5809983.110    572899.819  -3665374.316
10 0 59390  64782.000000  0    6251821.437    421583.516  -2871753.252
10 0 59390  64902.000000  0    6581921.730    256165.015  -2027724.238
10 0 59390  65022.000000  0    6794218.059     81531.640  -1148069.576
10 0 59390  65142.000000  0    6884794.283    -97175.559   -248228.109
10 0 59390  65262.000000  0    6851965.643   -274690.396    655980.226
10 0 59390  65382.000000  0    6696317.058   -445754.679   1548640.024
99
